ONEWEB-0578             
1 56067U 23043X   26185.43711005  .00000024  00000+0  27190-4 0  9997
2 56067  87.9243 240.5405 0002216  90.0157 270.1231 13.21825706160516
ONEWEB-0579             
1 56068U 23043Y   26185.58007918  .00000049  00000+0  87221-4 0  9993
2 56068  87.9248 240.5100 0001950 104.7024 255.4326 13.21827586160546
ONEWEB-0581             
1 56069U 23043Z   26185.55357111  .00000115  00000+0  26819-3 0  9993
2 56069  87.9085 225.3356 0001628  82.4178 277.7137 13.16594902161246
ONEWEB-0609             
1 56070U 23043AA  26185.59849793 -.00000057  00000+0 -18504-3 0  9990
2 56070  87.8993 255.7426 0002129  99.3649 260.7723 13.15546666158722
ONEWEB-0613             
1 56071U 23043AB  26185.13978417 -.00000099  00000+0 -29657-3 0  9994
2 56071  87.8992 255.8464 0002054 106.4916 253.6440 13.15547938158662
ONEWEB-0630             
1 56072U 23043AC  26185.59138242  .00000075  00000+0  16423-3 0  9998
2 56072  87.8999 255.7290 0001991 106.0326 254.1024 13.15549039158710
ONEWEB-0632             
1 56073U 23043AD  26185.58662810  .00000026  00000+0  34628-4 0  9995
2 56073  87.8995 255.7470 0001843  96.7217 263.4123 13.15547832158719
ONEWEB-0633             
1 56074U 23043AE  26185.42817752  .00000171  00000+0  42145-3 0  9999
2 56074  87.9004 255.7555 0002216 109.5665 250.5705 13.15548483158672
ONEWEB-0634             
1 56075U 23043AF  26185.48997303  .00000071  00000+0  15507-3 0  9998
2 56075  87.8990 255.7823 0002327  96.2529 263.8866 13.15547782158674
ONEWEB-0635             
1 56076U 23043AG  26185.48521706  .00000059  00000+0  12373-3 0  9993
2 56076  87.9000 255.7471 0001797  95.3020 264.8316 13.15547187158707
ONEWEB-0636             
1 56077U 23043AH  26185.62939952  .00000085  00000+0  19137-3 0  9990
2 56077  87.8997 255.7243 0001894  95.2190 264.9156 13.15547201158704
ONEWEB-0637             
1 56078U 23043AJ  26185.62306844  .00000027  00000+0  38186-4 0  9991
2 56078  87.8993 255.7412 0002061  91.0630 269.0737 13.15548090158729
ONEWEB-0647             
1 56079U 23043AK  26185.46620434  .00000029  00000+0  43765-4 0  9999
2 56079  87.8993 255.7847 0001930 100.5361 259.5987 13.15548843158696
ONEWEB-0651             
1 56080U 23043AL  26185.61356331  .00000015  00000+0  49297-5 0  9992
2 56080  87.8992 255.7487 0001932  92.6244 267.5107 13.15547855159911
ONEWEB-0718             
1 56081U 23043AM  26185.45669910 -.00000093  00000+0 -28034-3 0  9997
2 56081  87.8994 255.7607 0002568  99.2070 260.9351 13.15548670158704
ONEWEB-0561             
1 56710U 23068A   26185.47020105  .00000102  00000+0  21964-3 0  9996
2 56710  87.9202 270.9997 0001614 100.3270 259.8045 13.20774013151780
ONEWEB-0668             
1 56711U 23068B   26185.52823673  .00000005  00000+0 -21280-4 0  9999
2 56711  87.9083 225.3287 0002483  87.0906 273.0509 13.16594860154068
ONEWEB-0676             
1 56712U 23068C   26185.38416220  .00000064  00000+0  13324-3 0  9993
2 56712  87.9084 225.3633 0001799  89.1864 270.9473 13.16593919153968
ONEWEB-0677             
1 56713U 23068D   26185.53419979  .00000229  00000+0  53100-3 0  9994
2 56713  87.9195 270.9781 0002157  88.6436 271.4945 13.20771857152097
ONEWEB-0678             
1 56714U 23068E   26185.42500468  .00000165  00000+0  40555-3 0  9996
2 56714  87.9005 255.7606 0001916 106.2138 253.9203 13.15547740151551
ONEWEB-0679             
1 56715U 23068F   26185.34299075  .00000119  00000+0  27742-3 0  9999
2 56715  87.9085 225.3627 0002245  80.2077 279.9307 13.16594423153988
ONEWEB-0680             
1 56716U 23068G   26185.58175657  .00000076  00000+0  15252-3 0  9990
2 56716  87.9249 240.5112 0002456  86.4675 273.6740 13.21825376153392
ONEWEB-0681             
1 56717U 23068H   26185.10822817  .00000122  00000+0  26395-3 0  9998
2 56717  87.9247 240.6060 0001316  76.8826 283.2455 13.21824229153328
ONEWEB-0682             
1 56718U 23068J   26185.44877528 -.00000034  00000+0 -12501-3 0  9993
2 56718  87.9002 255.7562 0002409  88.6349 271.5057 13.15548172151720
ONEWEB-0683             
1 56719U 23068K   26185.47254028  .00000060  00000+0  12425-3 0  9993
2 56719  87.9001 255.7517 0002283  95.9728 264.1663 13.15548178151695
ONEWEB-0684             
1 56720U 23068L   26185.63258263  .00000032  00000+0  51329-4 0  9994
2 56720  87.8998 255.7094 0002549 131.1489 228.9862 13.15548847151549
ONEWEB-0686             
1 56721U 23068M   26185.53140225 -.00000013  00000+0 -66517-4 0  9998
2 56721  87.9074 225.3472 0002384  97.9735 262.1667 13.16593770153999
ONEWEB-0694             
1 56722U 23068N   26185.53773279  .00000032  00000+0  49727-4 0  9993
2 56722  87.9094 225.3137 0002429  87.6345 272.5064 13.16593965154053
ONEWEB-0696             
1 56723U 23068P   26185.43768334  .00000039  00000+0  70569-4 0  9994
2 56723  87.8994 255.7853 0001799 111.2123 248.9200 13.15550069151638
ONEWEB-0703             
1 56724U 23068Q   26185.44717895 -.00000030  00000+0 -11278-3 0  9996
2 56724  87.8995 255.7646 0001345 118.1610 241.9657 13.15547820151522
