OBJECT_NAME,OBJECT_ID,EPOCH,MEAN_MOTION,ECCENTRICITY,INCLINATION,RA_OF_ASC_NODE,ARG_OF_PERICENTER,MEAN_ANOMALY,EPHEMERIS_TYPE,CLASSIFICATION_TYPE,NORAD_CAT_ID,ELEMENT_SET_NO,REV_AT_EPOCH,BSTAR,MEAN_MOTION_DOT,MEAN_MOTION_DDOT
ONEWEB-0578,2023-043X,2026-07-04T10:29:26.308320,13.21825706,.00022166,87.9243,240.5405,90.0157,270.1231,0,U,56067,999,16051,.2719036E-4,.24E-6,0
ONEWEB-0579,2023-043Y,2026-07-04T13:55:18.841152,13.21827586,.00019507,87.9248,240.5100,104.7024,255.4326,0,U,56068,999,16054,.87220693E-4,.49E-6,0
ONEWEB-0581,2023-043Z,2026-07-04T13:17:08.543904,13.16594902,.00016285,87.9085,225.3356,82.4178,277.7137,0,U,56069,999,16124,.26818751E-3,.115E-5,0
ONEWEB-0609,2023-043AA,2026-07-04T14:21:50.221152,13.15546666,.00021293,87.8993,255.7426,99.3649,260.7723,0,U,56070,999,15872,-.18504268E-3,-.57E-6,0
ONEWEB-0613,2023-043AB,2026-07-04T03:21:17.352288,13.15547938,.00020545,87.8992,255.8464,106.4916,253.6440,0,U,56071,999,15866,-.29657321E-3,-.99E-6,0
ONEWEB-0630,2023-043AC,2026-07-04T14:11:35.441088,13.15549039,.00019915,87.8999,255.7290,106.0326,254.1024,0,U,56072,999,15871,.16422833E-3,.75E-6,0
ONEWEB-0632,2023-043AD,2026-07-04T14:04:44.667840,13.15547832,.00018434,87.8995,255.7470,96.7217,263.4123,0,U,56073,999,15871,.34627966E-4,.26E-6,0
ONEWEB-0633,2023-043AE,2026-07-04T10:16:34.537728,13.15548483,.00022163,87.9004,255.7555,109.5665,250.5705,0,U,56074,999,15867,.42144635E-3,.171E-5,0
ONEWEB-0634,2023-043AF,2026-07-04T11:45:33.669792,13.15547782,.00023272,87.8990,255.7823,96.2529,263.8866,0,U,56075,999,15867,.15507225E-3,.71E-6,0
ONEWEB-0635,2023-043AG,2026-07-04T11:38:42.753984,13.15547187,.00017976,87.9000,255.7471,95.3020,264.8316,0,U,56076,999,15870,.1237271E-3,.59E-6,0
ONEWEB-0636,2023-043AH,2026-07-04T15:06:20.118528,13.15547201,.00018947,87.8997,255.7243,95.2190,264.9156,0,U,56077,999,15870,.19137164E-3,.85E-6,0
ONEWEB-0637,2023-043AJ,2026-07-04T14:57:13.113216,13.15548090,.00020612,87.8993,255.7412,91.0630,269.0737,0,U,56078,999,15872,.3818575E-4,.27E-6,0
ONEWEB-0647,2023-043AK,2026-07-04T11:11:20.054976,13.15548843,.00019308,87.8993,255.7847,100.5361,259.5987,0,U,56079,999,15869,.43765134E-4,.29E-6,0
ONEWEB-0651,2023-043AL,2026-07-04T14:43:31.869984,13.15547855,.00019326,87.8992,255.7487,92.6244,267.5107,0,U,56080,999,15991,.4929695E-5,.15E-6,0
ONEWEB-0718,2023-043AM,2026-07-04T10:57:38.802240,13.15548670,.00025684,87.8994,255.7607,99.2070,260.9351,0,U,56081,999,15870,-.28033637E-3,-.93E-6,0
ONEWEB-0561,2023-068A,2026-07-04T11:17:05.370720,13.20774013,.00016145,87.9202,270.9997,100.3270,259.8045,0,U,56710,999,15178,.21964115E-3,.102E-5,0
ONEWEB-0668,2023-068B,2026-07-04T12:40:39.653472,13.16594860,.00024835,87.9083,225.3287,87.0906,273.0509,0,U,56711,999,15406,-.21279975E-4,.5E-7,0
ONEWEB-0676,2023-068C,2026-07-04T09:13:11.614080,13.16593919,.00017998,87.9084,225.3633,89.1864,270.9473,0,U,56712,999,15396,.13324116E-3,.64E-6,0
ONEWEB-0677,2023-068D,2026-07-04T12:49:14.861856,13.20771857,.0002157,87.9195,270.9781,88.6436,271.4945,0,U,56713,999,15209,.53099779E-3,.229E-5,0
ONEWEB-0678,2023-068E,2026-07-04T10:12:00.404352,13.15547740,.00019167,87.9005,255.7606,106.2138,253.9203,0,U,56714,999,15155,.40554667E-3,.165E-5,0
ONEWEB-0679,2023-068F,2026-07-04T08:13:54.400800,13.16594423,.00022452,87.9085,225.3627,80.2077,279.9307,0,U,56715,999,15398,.277425E-3,.119E-5,0
ONEWEB-0680,2023-068G,2026-07-04T13:57:43.767648,13.21825376,.0002456,87.9249,240.5112,86.4675,273.6740,0,U,56716,999,15339,.15252465E-3,.76E-6,0
ONEWEB-0681,2023-068H,2026-07-04T02:35:50.913888,13.21824229,.00013169,87.9247,240.6060,76.8826,283.2455,0,U,56717,999,15332,.26395282E-3,.122E-5,0
ONEWEB-0682,2023-068J,2026-07-04T10:46:14.184192,13.15548172,.00024093,87.9002,255.7562,88.6349,271.5057,0,U,56718,999,15172,-.125007E-3,-.34E-6,0
ONEWEB-0683,2023-068K,2026-07-04T11:20:27.480192,13.15548178,.00022835,87.9001,255.7517,95.9728,264.1663,0,U,56719,999,15169,.12425264E-3,.6E-6,0
ONEWEB-0684,2023-068L,2026-07-04T15:10:55.139232,13.15548847,.00025494,87.8998,255.7094,131.1489,228.9862,0,U,56720,999,15154,.51329491E-4,.32E-6,0
ONEWEB-0686,2023-068M,2026-07-04T12:45:13.154400,13.16593770,.00023846,87.9074,225.3472,97.9735,262.1667,0,U,56721,999,15399,-.66517204E-4,-.13E-6,0
ONEWEB-0694,2023-068N,2026-07-04T12:54:20.113056,13.16593965,.00024293,87.9094,225.3137,87.6345,272.5064,0,U,56722,999,15405,.49727062E-4,.32E-6,0
ONEWEB-0696,2023-068P,2026-07-04T10:30:15.840576,13.15550069,.00017994,87.8994,255.7853,111.2123,248.9200,0,U,56723,999,15163,.70568885E-4,.39E-6,0
ONEWEB-0703,2023-068Q,2026-07-04T10:43:56.261280,13.15547820,.00013457,87.8995,255.7646,118.1610,241.9657,0,U,56724,999,15152,-.11277593E-3,-.3E-6,0
